[
  {
    "OBJECT_NAME": "STARLINK-34650",
    "OBJECT_ID": "25245AA",
    "EPOCH": "2025-11-11T06:00:02.000160",
    "MEAN_MOTION": 15.79440568,
    "ECCENTRICITY": 9.46e-05,
    "INCLINATION": 53.1522,
    "RA_OF_ASC_NODE": 120.0125,
    "ARG_OF_PERICENTER": 75.8198,
    "MEAN_ANOMALY": 120.5019,
    "EPHEMERIS_TYPE": 0,
    "CLASSIFICATION_TYPE": "U",
    "NORAD_CAT_ID": 66258,
    "ELEMENT_SET_NO": 999,
    "REV_AT_EPOCH": 304,
    "BSTAR": 0.0,
    "MEAN_MOTION_DOT": -0.01460075,
    "MEAN_MOTION_DDOT": 0.0,
    "TLE_LINE1": "1 66258U 25245AA  25315.25002315 -.01460075  00000+0 -89280-2 0  9992",
    "TLE_LINE2": "2 66258  53.1522 120.0125 0000946  75.8198 120.5019 15.79440568  3049",
    "COMMENT": "Grouped by shell and plane from TLE"
  }
]